[{"OBJECT_NAME":"STARLINK-36889","OBJECT_ID":"2026-039W","EPOCH":"2026-03-09T22:00:01.999584","MEAN_MOTION":15.85471581,"ECCENTRICITY":0.00015275,"INCLINATION":42.9979,"RA_OF_ASC_NODE":53.3437,"ARG_OF_PERICENTER":264.2793,"MEAN_ANOMALY":74.527,"EPHEMERIS_TYPE":0,"CLASSIFICATION_TYPE":"U","NORAD_CAT_ID":68006,"ELEMENT_SET_NO":999,"REV_AT_EPOCH":291,"BSTAR":-0.0071582541,"MEAN_MOTION_DOT":-0.01562464,"MEAN_MOTION_DDOT":0},{"OBJECT_NAME":"CZ-2F R\/B","OBJECT_ID":"2026-024B","EPOCH":"2026-03-09T21:33:36.475776","MEAN_MOTION":15.34345765,"ECCENTRICITY":0.01743731,"INCLINATION":49.9895,"RA_OF_ASC_NODE":13.5528,"ARG_OF_PERICENTER":275.7155,"MEAN_ANOMALY":82.3946,"EPHEMERIS_TYPE":0,"CLASSIFICATION_TYPE":"U","NORAD_CAT_ID":67690,"ELEMENT_SET_NO":999,"REV_AT_EPOCH":472,"BSTAR":0.00037009281,"MEAN_MOTION_DOT":0.00020274,"MEAN_MOTION_DDOT":0}]
